NORAD_CAT_ID,OBJECT_NAME,OBJECT_TYPE,EPOCH,MEAN_MOTION,ECCENTRICITY,INCLINATION,RA_OF_ASC_NODE,ARG_OF_PERICENTER,MEAN_ANOMALY,BSTAR,MEAN_MOTION_DOT,MEAN_MOTION_DDOT,TLE_LINE0,TLE_LINE1,TLE_LINE2,SEMIMAJOR_AXIS,PERIOD,APOGEE,PERIGEE,DECAYED
52993.0,STARLINK-4264,PAYLOAD,2022-08-15 16:00:00,15.68528562,0.0001439,53.2174,186.0016,39.3466,48.3641,-0.010104,-0.01047975,0.0,0 STARLINK-4264,1 52993U 22076H   22227.66667824 -.01047975  00000-0 -10104-1 0  9997,2 52993  53.2174 186.0016 0001439  39.3466  48.3641 15.68528562  6653,6741.246999999999,91.806,364.082,362.142,0.0
52993.0,STARLINK-4264,PAYLOAD,2022-08-15 22:00:00,15.6796009,0.0001424,53.2174,184.7709,41.4119,18.5248,-0.010358,-0.01049222,0.0,0 STARLINK-4264,1 52993U 22076H   22227.91667824 -.01049222  00000-0 -10358-1 0  9993,2 52993  53.2174 184.7709 0001424  41.4119  18.5248 15.67960090  1304,6742.876,91.839,365.701,363.781,0.0
52993.0,STARLINK-4264,PAYLOAD,2022-08-16 14:00:01,15.66444566,0.0001249,53.2175,181.4954,64.8123,158.5505,-0.011086,-0.01054679,0.0,0 STARLINK-4264,1 52993U 22076H   22228.58334491 -.01054679  00000-0 -11086-1 0  9999,2 52993  53.2175 181.4954 0001249  64.8123 158.5505 15.66444566  1305,6747.224,91.928,369.932,368.247,0.0
52993.0,STARLINK-4264,PAYLOAD,2022-08-16 22:00:00,15.65683249,0.0001211999999999,53.2177,179.8598,58.1789,245.5291,-0.0113829999999999,-0.01050464,0.0,0 STARLINK-4264,1 52993U 22076H   22228.91667824 -.01050464  00000-0 -11383-1 0  9993,2 52993  53.2177 179.8598 0001212  58.1789 245.5291 15.65683249  1307,6749.411,91.973,372.094,370.458,0.0
52993.0,STARLINK-4264,PAYLOAD,2022-08-17 14:00:01,15.64162823,0.000135,53.2175,176.5953,48.8996,52.7606,-0.012074,-0.0104848999999999,0.0,0 STARLINK-4264,1 52993U 22076H   22229.58334491 -.01048490  00000-0 -12074-1 0  9992,2 52993  53.2175 176.5953 0001350  48.8996  52.7606 15.64162823  1300,6753.785,92.062,376.561,374.73800000000006,0.0
52993.0,STARLINK-4264,PAYLOAD,2022-08-18 08:00:01,15.62453747,0.0001335,53.2171,172.9327,41.1027,323.8879,-0.012894,-0.0106284,0.0,0 STARLINK-4264,1 52993U 22076H   22230.33334491 -.01062840  00000-0 -12894-1 0  9992,2 52993  53.2171 172.9327 0001335  41.1027 323.8879 15.62453747  7075,6758.709,92.163,381.476,379.671,0.0
52993.0,STARLINK-4264,PAYLOAD,2022-08-18 14:00:01,15.61885974,0.0001141,53.2173,171.71200000000005,56.0687,275.673,-0.0132419999999999,-0.01067028,0.0,0 STARLINK-4264,1 52993U 22076H   22230.58334491 -.01067028  00000-0 -13242-1 0  9990,2 52993  53.2173 171.7120 0001141  56.0687 275.6730 15.61885974  1307,6760.347,92.196,382.983,381.44,0.0
52993.0,STARLINK-4264,PAYLOAD,2022-08-18 22:00:00,15.6112587,0.0001239,53.2176,170.0875,53.4071,353.2036,-0.013615,-0.01065251,0.0,0 STARLINK-4264,1 52993U 22076H   22230.91667824 -.01065251  00000-0 -13615-1 0  9996,2 52993  53.2176 170.0875 0001239  53.4071 353.2036 15.61125870  1309,6762.541,92.241,385.244,383.568,0.0
52993.0,STARLINK-4264,PAYLOAD,2022-08-19 06:00:00,15.60361832,0.0001419,53.2175,168.467,49.8799,70.6876,-0.013914,-0.01057677,0.0,0 STARLINK-4264,1 52993U 22076H   22231.25001157 -.01057677  00000-0 -13914-1 0  9990,2 52993  53.2175 168.4670 0001419  49.8799  70.6876 15.60361832  7215,6764.748000000001,92.286,387.573,385.653,0.0
52993.0,STARLINK-4264,PAYLOAD,2022-08-19 14:00:01,15.59605503,0.0001422,53.2176,166.8446,52.6302,140.9807,-0.014398,-0.01062576,0.0,0 STARLINK-4264,1 52993U 22076H   22231.58334491 -.01062576  00000-0 -14398-1 0  9997,2 52993  53.2176 166.8446 0001422  52.6302 140.9807 15.59605503  1308,6766.935,92.331,389.762,387.838,0.0
52993.0,STARLINK-4264,PAYLOAD,2022-08-19 22:00:00,15.58846262,0.000131,53.2177,165.2264,58.363,207.3781,-0.014822,-0.01062506,0.0,0 STARLINK-4264,1 52993U 22076H   22231.91667824 -.01062506  00000-0 -14822-1 0  9998,2 52993  53.2177 165.2264 0001310  58.3630 207.3781 15.58846262  7328,6769.132,92.376,391.884,390.11,0.0
52993.0,STARLINK-4264,PAYLOAD,2022-08-20 14:00:01,15.57326115,0.0001294,53.2174,161.9942,46.01,1.2557,-0.015676,-0.01060915,0.0,0 STARLINK-4264,1 52993U 22076H   22232.58334491 -.01060915  00000-0 -15676-1 0  9993,2 52993  53.2174 161.9942 0001294  46.0100   1.2557 15.57326115  1301,6773.536,92.466,396.278,394.525,0.0
52993.0,STARLINK-4264,PAYLOAD,2022-08-20 22:00:00,15.56567353,0.0001610999999999,53.2174,160.3815,40.4064,76.2513,-0.016141,-0.01061693,0.0,0 STARLINK-4264,1 52993U 22076H   22232.91667824 -.01061693  00000-0 -16141-1 0  9991,2 52993  53.2174 160.3815 0001611  40.4064  76.2513 15.56567353  1307,6775.736999999999,92.511,398.694,396.511,0.0
52993.0,STARLINK-4264,PAYLOAD,2022-08-21 14:00:01,15.55047413,0.0001329,53.2175,157.1603,55.4484,197.2576,-0.017046,-0.01059603,0.0,0 STARLINK-4264,1 52993U 22076H   22233.58334491 -.01059603  00000-0 -17046-1 0  9999,2 52993  53.2175 157.1603 0001329  55.4484 197.2576 15.55047413  1307,6780.151999999999,92.602,402.918,401.116,0.0
52993.0,STARLINK-4264,PAYLOAD,2022-08-21 22:00:00,15.54289529,0.0001299,53.2174,155.5532,52.0884,267.2712,-0.017573,-0.01061968,0.0,0 STARLINK-4264,1 52993U 22076H   22233.91667824 -.01061968  00000-0 -17573-1 0  9997,2 52993  53.2174 155.5532 0001299  52.0884 267.2712 15.54289529  1307,6782.356,92.647,405.102,403.34,0.0
52993.0,STARLINK-4264,PAYLOAD,2022-08-22 12:00:00,15.52960918,0.000131,53.2174,152.744,45.7528,298.0568,-0.01847,-0.01063039,0.0,0 STARLINK-4264,1 52993U 22076H   22234.50001157 -.01063039  00000-0 -18470-1 0  9992,2 52993  53.2174 152.7440 0001310  45.7528 298.0568 15.52960918  1309,6786.223000000001,92.726,408.977,407.199,0.0
52993.0,STARLINK-4264,PAYLOAD,2022-08-22 22:00:00,15.52009002,0.000166,53.2175,150.7414,42.5095,111.3392,-0.019022,-0.01058187,0.0,0 STARLINK-4264,1 52993U 22076H   22234.91667824 -.01058187  00000-0 -19022-1 0  9998,2 52993  53.2175 150.7414 0001660  42.5095 111.3392 15.52009002  1301,6788.998000000001,92.783,411.99,409.736,0.0
52993.0,STARLINK-4264,PAYLOAD,2022-08-23 06:00:00,15.51249775,0.0001386999999999,53.2172,149.1426,53.4638,163.3882,-0.019576,-0.01059368,0.0,0 STARLINK-4264,1 52993U 22076H   22235.25001157 -.01059368  00000-0 -19576-1 0  9993,2 52993  53.2172 149.1426 0001387  53.4638 163.3882 15.51249775  7841,6791.2130000000025,92.828,414.02,412.136,0.0
52993.0,STARLINK-4264,PAYLOAD,2022-08-23 14:00:01,15.50366594,0.000159,53.2174,147.5435,35.9887,242.9706,-0.010336,-0.00556675,0.0,0 STARLINK-4264,1 52993U 22076H   22235.58334491 -.00556675  00000-0 -10336-1 0  9996,2 52993  53.2174 147.5435 0001590  35.9887 242.9706 15.50366594  7894,6793.792,92.881,416.737,414.577,0.0
52993.0,STARLINK-4264,PAYLOAD,2022-08-23 20:00:01,15.4993894,0.0001712,53.2176,146.3478,36.9098,198.0552,-0.0015432,-0.00087237,0.0,0 STARLINK-4264,1 52993U 22076H   22235.83334491 -.00087237  00000-0 -15432-2 0  9990,2 52993  53.2176 146.3478 0001712  36.9098 198.0552 15.49938940  7934,6795.042,92.907,418.07,415.74300000000005,0.0
52993.0,STARLINK-4264,PAYLOAD,2022-08-23 22:00:01,15.49880795,0.0001631,53.2176,145.95,38.2663,302.0189,0.00012537,6.669e-05,0.0,0 STARLINK-4264,1 52993U 22076H   22235.91668981  .00006669  00000-0  12537-3 0  9995,2 52993  53.2176 145.9500 0001631  38.2663 302.0189 15.49880795  1300,6795.2109999999975,92.91,418.185,415.968,0.0
52993.0,STARLINK-4264,PAYLOAD,2022-08-24 06:00:00,15.49940634,0.0001771999999999,53.2164,144.3672,44.4398,356.7154,-0.00022769,-0.00013378,0.0,0 STARLINK-4264,1 52993U 22076H   22236.25001157 -.00013378  00000-0 -22769-3 0  9994,2 52993  53.2164 144.3672 0001772  44.4398 356.7154 15.49940634  7998,6795.0369999999975,92.907,418.106,415.697,0.0
52993.0,STARLINK-4264,PAYLOAD,2022-08-24 14:00:01,15.49873909,0.0001658,53.2169,142.7727,55.569,46.5694,0.00023013,0.00012625,0.0,0 STARLINK-4264,1 52993U 22076H   22236.58334491  .00012625  00000-0  23013-3 0  9995,2 52993  53.2169 142.7727 0001658  55.5690  46.5694 15.49873909  1309,6795.232,92.911,418.223,415.97,0.0
52993.0,STARLINK-4264,PAYLOAD,2022-08-24 16:00:00,15.49860328,0.0001720999999999,53.2169,142.3741,58.1716,149.1984,0.00074418,0.00041975,0.0,0 STARLINK-4264,1 52993U 22076H   22236.66667824  .00041975  00000-0  74418-3 0  9998,2 52993  53.2169 142.3741 0001721  58.1716 149.1984 15.49860328  8063,6795.271,92.912,418.306,415.967,0.0
52993.0,STARLINK-4264,PAYLOAD,2022-08-24 22:00:00,15.49896214,0.0001834,53.2172,141.1808,55.5256,107.5157,-0.00041667,-0.00024038,0.0,0 STARLINK-4264,1 52993U 22076H   22236.91667824 -.00024038  00000-0 -41667-3 0  9999,2 52993  53.2172 141.1808 0001834  55.5256 107.5157 15.49896214  1306,6795.166,92.909,418.278,415.785,0.0
52993.0,STARLINK-4264,PAYLOAD,2022-08-25 06:00:02,15.49880586,0.0001905,53.2171,139.5886,50.6586,173.3618,0.00040242,0.0002245,0.0,0 STARLINK-4264,1 52993U 22076H   22237.25002315  .00022450  00000-0  40242-3 0  9997,2 52993  53.2171 139.5886 0001905  50.6586 173.3618 15.49880586  8151,6795.212,92.91,418.372,415.783,0.0
52993.0,STARLINK-4264,PAYLOAD,2022-08-25 14:00:01,15.49867894,0.0001793,53.2176,137.9937,57.0366,227.8455,0.00091124,0.00051577,0.0,0 STARLINK-4264,1 52993U 22076H   22237.58334491  .00051577  00000-0  91124-3 0  9993,2 52993  53.2176 137.9937 0001793  57.0366 227.8455 15.49867894  1308,6795.249,92.911,418.333,415.896,0.0
52993.0,STARLINK-4264,PAYLOAD,2022-08-25 22:00:00,15.49915119,0.0001950999999999,53.2177,136.4019,55.6817,290.1124,-0.00050019,-0.00028768,0.0,0 STARLINK-4264,1 52993U 22076H   22237.91667824 -.00028768  00000-0 -50019-3 0  9995,2 52993  53.2177 136.4019 0001951  55.6817 290.1124 15.49915119  1305,6795.111,92.908,418.302,415.65,0.0
52993.0,STARLINK-4264,PAYLOAD,2022-08-26 06:00:00,15.49889991,0.0001776999999999,53.2173,134.7996,56.6923,349.9233,-9.2057e-05,-5.674e-05,0.0,0 STARLINK-4264,1 52993U 22076H   22238.25001157 -.00005674  00000-0 -92057-4 0  9994,2 52993  53.2173 134.7996 0001777  56.6923 349.9233 15.49889991  8300,6795.185,92.91,418.257,415.842,0.0
